[{"OBJECT_NAME":"YAOGAN-37","OBJECT_ID":"2023-006C","EPOCH":"2026-03-09T23:15:16.754688","MEAN_MOTION":15.16132405,"ECCENTRICITY":0.00165574,"INCLINATION":43.1974,"RA_OF_ASC_NODE":311.9793,"ARG_OF_PERICENTER":108.2694,"MEAN_ANOMALY":251.9959,"EPHEMERIS_TYPE":0,"CLASSIFICATION_TYPE":"U","NORAD_CAT_ID":55244,"ELEMENT_SET_NO":999,"REV_AT_EPOCH":17481,"BSTAR":0.00034068516,"MEAN_MOTION_DOT":6.475e-5,"MEAN_MOTION_DDOT":0},{"OBJECT_NAME":"TRANSPORTER-15 OBJECT CD","OBJECT_ID":"2025-276CD","EPOCH":"2026-03-06T20:38:14.841600","MEAN_MOTION":15.18860021,"ECCENTRICITY":0.00053081,"INCLINATION":97.4316,"RA_OF_ASC_NODE":141.2013,"ARG_OF_PERICENTER":3.5398,"MEAN_ANOMALY":356.5873,"EPHEMERIS_TYPE":0,"CLASSIFICATION_TYPE":"U","NORAD_CAT_ID":66741,"ELEMENT_SET_NO":999,"REV_AT_EPOCH":1218,"BSTAR":0.00084273364,"MEAN_MOTION_DOT":0.0001753,"MEAN_MOTION_DDOT":0}]
